STARLINK-36934          
1 68279U 26055T   26087.58335648 -.01264672  49517-3 -27804-2 0  9997
2 68279  53.1578 242.8576 0000882  68.7184  28.6617 15.97469936  2673
STARLINK-37070          
1 68280U 26055U   26087.58335648 -.01274749  50427-3 -27474-2 0  9990
2 68280  53.1580 242.8366 0000838  76.1500  31.2047 15.97829778  2672
STARLINK-37134          
1 68281U 26055V   26087.58335648 -.01273839  50491-3 -27080-2 0  9994
2 68281  53.1576 242.8227 0000808  72.9895  41.1194 15.98075737  2674
STARLINK-37160          
1 68282U 26055W   26087.58335648 -.01274430  50470-3 -27276-2 0  9997
2 68282  53.1578 242.8300 0000812  71.5851  39.3045 15.97955024  2670
STARLINK-37124          
1 68283U 26055X   26087.58335648 -.01271149  50358-3 -26851-2 0  9995
2 68283  53.1577 242.8173 0000810  80.9040  36.0130 15.98189182  2674
STARLINK-37159          
1 68284U 26055Y   26087.58335648 -.01267964  50196-3 -26592-2 0  9998
2 68284  53.1578 242.8099 0000868  88.0761  32.2795 15.98317279  2670
STARLINK-36725          
1 68285U 26055Z   26087.58335648 -.01265117  50051-3 -26363-2 0  9993
2 68285  53.1574 242.8038 0000879  68.0674  55.0463 15.98430833  2670
STARLINK-36998          
1 68286U 26055AA  26087.58335648 -.01269827  50536-3 -26060-2 0  9998
2 68286  53.1582 242.7908 0000854  76.7497  53.2359 15.98703808  2676
STARLINK-37165          
1 68287U 26055AB  26087.58335648 -.01269930  50615-3 -25867-2 0  9996
2 68287  53.1578 242.7828 0000818  67.8748  65.2995 15.98837283  2677
STARLINK-37016          
1 68288U 26055AC  26087.58335648 -.01263885  50030-3 -26149-2 0  9995
2 68288  53.1576 242.7972 0000831  67.0046  59.3467 15.98558966  2670
STARLINK-37010          
1 68289U 26055AD  26087.58335648 -.01264999  50322-3 -25591-2 0  9997
2 68289  53.1580 242.7764 0000875  72.6314  63.3566 15.98957819  2678
STARLINK-37151          
1 68290U 26055AE  26087.58335648 -.01249924  49293-3 -25128-2 0  9991
2 68290  53.1575 242.7718 0000972  80.1209  58.3450 15.99065884  2677
STRIX-6                 
1 68291U 26056A   26087.17957459  .00005215  00000+0  43866-3 0  9997
2 68291  50.2842  12.5676 0016633 293.6179  66.3023 14.99596008  1116
ELECTRON R/B            
1 68292U 26056B   26087.75728865  .03009656  11061-4  10369-2 0  9990
2 68292  50.2615   4.9571 0179046 282.1218  75.9763 15.96782668  1269
ELECTRON KICK STAGE R/B 
1 68293U 26056C   26087.51141520  .00107413  00000+0  17102-2 0  9997
2 68293  50.2932   8.7355 0157699  42.0968 319.1988 15.39543197  1204
STARLINK-37107          
1 68294U 26057A   26087.58335648 -.00978294  32202-3 -17257-2 0  9991
2 68294  97.2816 210.6758 0001279  70.7521 145.6688 16.02010372  2196
